ONEWEB-0427             
1 50499U 21132AG  25234.47430225 -.00000099  00000+0 -28419-3 0  9995
2 50499  87.9145  34.7551 0001860 100.3057 259.8285 13.18686042182244
ONEWEB-0429             
1 50500U 21132AH  25234.46115223  .00000087  00000+0  18852-3 0  9990
2 50500  87.9151  34.7872 0001707  88.5371 271.5956 13.18687775182213
ONEWEB-0430             
1 50501U 21132AJ  25232.70441942  .00000118  00000+0  26647-3 0  9992
2 50501  87.9150  35.1316 0001658  92.1701 267.9621 13.18686888182025
ONEWEB-0432             
1 50502U 21132AK  25234.48111462  .00000081  00000+0  17235-3 0  9993
2 50502  87.9141  34.7572 0001783 123.6626 236.4676 13.18689105182217
ONEWEB-0440             
1 50503U 21132AL  25234.46936813  .00000069  00000+0  14144-3 0  9999
2 50503  87.9152  34.7689 0002054  83.4905 276.6461 13.18687885182204
ONEWEB-0450             
1 50504U 21132AM  25234.46292711  .00000057  00000+0  11169-3 0  9993
2 50504  87.9150  34.7958 0001579  85.3280 274.8032 13.18686219182237
ONEWEB-0410             
1 51622U 22012A   25234.48439118  .00000026  00000+0  32446-4 0  9997
2 51622  87.9032  65.2742 0002876 113.6271 246.5162 13.17649990174363
ONEWEB-0411             
1 51623U 22012B   25233.99703002  .00000729  00000+0  20530-2 0  9998
2 51623  87.8765  95.9413 0001169  78.6529 281.4730 13.10373703170107
